[{"OBJECT_NAME":"STARLINK-30455","OBJECT_ID":"2023-148H","EPOCH":"2026-03-09T04:56:40.190208","MEAN_MOTION":15.30188282,"ECCENTRICITY":0.00011754,"INCLINATION":53.1624,"RA_OF_ASC_NODE":26.7281,"ARG_OF_PERICENTER":82.8128,"MEAN_ANOMALY":277.3006,"EPHEMERIS_TYPE":0,"CLASSIFICATION_TYPE":"U","NORAD_CAT_ID":57942,"ELEMENT_SET_NO":999,"REV_AT_EPOCH":13834,"BSTAR":-1.3747476e-5,"MEAN_MOTION_DOT":-7.66e-6,"MEAN_MOTION_DDOT":0},{"OBJECT_NAME":"AL MUNTHER","OBJECT_ID":"2025-052AG","EPOCH":"2026-03-09T15:29:23.207136","MEAN_MOTION":15.28381521,"ECCENTRICITY":0.0008027,"INCLINATION":97.4001,"RA_OF_ASC_NODE":323.9152,"ARG_OF_PERICENTER":130.7043,"MEAN_ANOMALY":229.4895,"EPHEMERIS_TYPE":0,"CLASSIFICATION_TYPE":"U","NORAD_CAT_ID":63240,"ELEMENT_SET_NO":999,"REV_AT_EPOCH":5479,"BSTAR":0.00065015,"MEAN_MOTION_DOT":0.00017933,"MEAN_MOTION_DDOT":0}]
